{
  "type": "FeatureCollection",
  "features": [
    {
      "type": "Feature",
      "properties": {
        "norad_id": 40938,
        "name": "BEIDOU-3S IGSO-2S (C56)",
        "group": "gnss",
        "lat": 39.303215982044755,
        "lon": 36.750053007607626,
        "alt_km": 35671.21046857177,
        "timestamp": "2025-12-11T13:55:02.407334+00:00",
        "meta_object_name": "BEIDOU-3S IGSO-2S (C56)",
        "meta_object_id": "2015-053A",
        "meta_epoch": "2025-12-10T19:08:53.549664",
        "meta_mean_motion": 1.00269885,
        "meta_eccentricity": 0.00610666,
        "meta_inclination": 49.5143,
        "meta_ra_of_asc_node": 261.0281,
        "meta_arg_of_pericenter": 188.5075,
        "meta_mean_anomaly": 13.4914,
        "meta_ephemeris_type": 0,
        "meta_classification_type": "U",
        "meta_norad_cat_id": 40938,
        "meta_element_set_no": 999,
        "meta_rev_at_epoch": 3746,
        "meta_bstar": 0,
        "meta_mean_motion_dot": -1.54e-06,
        "meta_mean_motion_ddot": 0,
        "tle_line1": "1 40938U 15053A   25344.79784201 -.00000154  00000+0  00000+0 0  9993",
        "tle_line2": "2 40938  49.5143 261.0281 0061066 188.5075  13.4914  1.00269885 37466"
      },
      "geometry": {
        "type": "Point",
        "coordinates": [
          36.750053007607626,
          39.303215982044755
        ]
      }
    },
    {
      "type": "Feature",
      "properties": {
        "norad_id": 41019,
        "name": "GPS BIIF-11 (PRN 10)",
        "group": "gnss",
        "lat": -8.451955872272151,
        "lon": -136.3653897723984,
        "alt_km": 19955.65787780465,
        "timestamp": "2025-12-11T13:55:02.407346+00:00",
        "meta_object_name": "GPS BIIF-11 (PRN 10)",
        "meta_object_id": "2015-062A",
        "meta_epoch": "2025-12-10T07:36:33.024096",
        "meta_mean_motion": 2.00567034,
        "meta_eccentricity": 0.01107574,
        "meta_inclination": 56.8304,
        "meta_ra_of_asc_node": 38.096,
        "meta_arg_of_pericenter": 229.8791,
        "meta_mean_anomaly": 129.1964,
        "meta_ephemeris_type": 0,
        "meta_classification_type": "U",
        "meta_norad_cat_id": 41019,
        "meta_element_set_no": 999,
        "meta_rev_at_epoch": 7404,
        "meta_bstar": 0,
        "meta_mean_motion_dot": -8.8e-07,
        "meta_mean_motion_ddot": 0,
        "tle_line1": "1 41019U 15062A   25344.31704889 -.00000088  00000+0  00000+0 0  9992",
        "tle_line2": "2 41019  56.8304  38.0960 0110757 229.8791 129.1964  2.00567034 74042"
      },
      "geometry": {
        "type": "Point",
        "coordinates": [
          -136.3653897723984,
          -8.451955872272151
        ]
      }
    },
    {
      "type": "Feature",
      "properties": {
        "norad_id": 41028,
        "name": "GSAT-15 (GAGAN/PRN 139)",
        "group": "gnss",
        "lat": 0.05337522230536867,
        "lon": 22.809457332645284,
        "alt_km": 35797.42996895203,
        "timestamp": "2025-12-11T13:55:02.407358+00:00",
        "meta_object_name": "GSAT-15 (GAGAN/PRN 139)",
        "meta_object_id": "2015-065A",
        "meta_epoch": "2025-12-10T21:41:05.996832",
        "meta_mean_motion": 1.00272628,
        "meta_eccentricity": 0.0003038,
        "meta_inclination": 0.05,
        "meta_ra_of_asc_node": 266.153,
        "meta_arg_of_pericenter": 322.572,
        "meta_mean_anomaly": 269.9198,
        "meta_ephemeris_type": 0,
        "meta_classification_type": "U",
        "meta_norad_cat_id": 41028,
        "meta_element_set_no": 999,
        "meta_rev_at_epoch": 3691,
        "meta_bstar": 0,
        "meta_mean_motion_dot": -2.53e-06,
        "meta_mean_motion_ddot": 0,
        "tle_line1": "1 41028U 15065A   25344.90354163 -.00000253  00000+0  00000+0 0  9990",
        "tle_line2": "2 41028   0.0500 266.1530 0003038 322.5720 269.9198  1.00272628 36911"
      },
      "geometry": {
        "type": "Point",
        "coordinates": [
          22.809457332645284,
          0.05337522230536867
        ]
      }
    },
    {
      "type": "Feature",
      "properties": {
        "norad_id": 41174,
        "name": "GSAT0209 (GALILEO 12)",
        "group": "gnss",
        "lat": 22.67148766163536,
        "lon": -90.14107942060897,
        "alt_km": 23226.028301595743,
        "timestamp": "2025-12-11T13:55:02.407371+00:00",
        "meta_object_name": "GSAT0209 (GALILEO 12)",
        "meta_object_id": "2015-079A",
        "meta_epoch": "2025-12-08T09:34:38.512704",
        "meta_mean_motion": 1.70474355,
        "meta_eccentricity": 0.00023972,
        "meta_inclination": 55.7104,
        "meta_ra_of_asc_node": 106.5001,
        "meta_arg_of_pericenter": 353.8677,
        "meta_mean_anomaly": 6.0907,
        "meta_ephemeris_type": 0,
        "meta_classification_type": "U",
        "meta_norad_cat_id": 41174,
        "meta_element_set_no": 999,
        "meta_rev_at_epoch": 6152,
        "meta_bstar": 0,
        "meta_mean_motion_dot": 1e-07,
        "meta_mean_motion_ddot": 0,
        "tle_line1": "1 41174U 15079A   25342.39905686  .00000010  00000+0  00000+0 0  9990",
        "tle_line2": "2 41174  55.7104 106.5001 0002397 353.8677   6.0907  1.70474355 61526"
      },
      "geometry": {
        "type": "Point",
        "coordinates": [
          -90.14107942060897,
          22.67148766163536
        ]
      }
    },
    {
      "type": "Feature",
      "properties": {
        "norad_id": 41175,
        "name": "GSAT0208 (GALILEO 11)",
        "group": "gnss",
        "lat": 14.006599842285357,
        "lon": 116.19019672833373,
        "alt_km": 23215.237267915996,
        "timestamp": "2025-12-11T13:55:02.407383+00:00",
        "meta_object_name": "GSAT0208 (GALILEO 11)",
        "meta_object_id": "2015-079B",
        "meta_epoch": "2025-12-08T14:51:40.201056",
        "meta_mean_motion": 1.70474231,
        "meta_eccentricity": 0.0001859,
        "meta_inclination": 55.7088,
        "meta_ra_of_asc_node": 106.4912,
        "meta_arg_of_pericenter": 3.1611,
        "meta_mean_anomaly": 356.8026,
        "meta_ephemeris_type": 0,
        "meta_classification_type": "U",
        "meta_norad_cat_id": 41175,
        "meta_element_set_no": 999,
        "meta_rev_at_epoch": 6194,
        "meta_bstar": 0,
        "meta_mean_motion_dot": 1e-07,
        "meta_mean_motion_ddot": 0,
        "tle_line1": "1 41175U 15079B   25342.61921529  .00000010  00000+0  00000+0 0  9990",
        "tle_line2": "2 41175  55.7088 106.4912 0001859   3.1611 356.8026  1.70474231 61940"
      },
      "geometry": {
        "type": "Point",
        "coordinates": [
          116.19019672833373,
          14.006599842285357
        ]
      }
    },
    {
      "type": "Feature",
      "properties": {
        "norad_id": 41241,
        "name": "IRNSS-1E",
        "group": "gnss",
        "lat": -11.337801454224778,
        "lon": 44.377894239439605,
        "alt_km": 35868.367549933406,
        "timestamp": "2025-12-11T13:55:02.407395+00:00",
        "meta_object_name": "IRNSS-1E",
        "meta_object_id": "2016-003A",
        "meta_epoch": "2025-12-10T15:46:53.425056",
        "meta_mean_motion": 1.00274749,
        "meta_eccentricity": 0.00218635,
        "meta_inclination": 32.8208,
        "meta_ra_of_asc_node": 62.484,
        "meta_arg_of_pericenter": 187.1303,
        "meta_mean_anomaly": 178.5288,
        "meta_ephemeris_type": 0,
        "meta_classification_type": "U",
        "meta_norad_cat_id": 41241,
        "meta_element_set_no": 999,
        "meta_rev_at_epoch": 3619,
        "meta_bstar": 0,
        "meta_mean_motion_dot": -3.06e-06,
        "meta_mean_motion_ddot": 0,
        "tle_line1": "1 41241U 16003A   25344.65756279 -.00000306  00000+0  00000+0 0  9995",
        "tle_line2": "2 41241  32.8208  62.4840 0021863 187.1303 178.5288  1.00274749 36196"
      },
      "geometry": {
        "type": "Point",
        "coordinates": [
          44.377894239439605,
          -11.337801454224778
        ]
      }
    },
    {
      "type": "Feature",
      "properties": {
        "norad_id": 41328,
        "name": "GPS BIIF-12 (PRN 32)",
        "group": "gnss",
        "lat": 38.822186854666114,
        "lon": -116.79623686720996,
        "alt_km": 20271.636489053348,
        "timestamp": "2025-12-11T13:55:02.407407+00:00",
        "meta_object_name": "GPS BIIF-12 (PRN 32)",
        "meta_object_id": "2016-007A",
        "meta_epoch": "2025-12-10T09:35:17.707200",
        "meta_mean_motion": 2.005608,
        "meta_eccentricity": 0.00920502,
        "meta_inclination": 55.4049,
        "meta_ra_of_asc_node": 96.9499,
        "meta_arg_of_pericenter": 243.5192,
        "meta_mean_anomaly": 115.5235,
        "meta_ephemeris_type": 0,
        "meta_classification_type": "U",
        "meta_norad_cat_id": 41328,
        "meta_element_set_no": 999,
        "meta_rev_at_epoch": 7205,
        "meta_bstar": 0,
        "meta_mean_motion_dot": 3e-08,
        "meta_mean_motion_ddot": 0,
        "tle_line1": "1 41328U 16007A   25344.39951050  .00000003  00000+0  00000+0 0  9993",
        "tle_line2": "2 41328  55.4049  96.9499 0092050 243.5192 115.5235  2.00560800 72052"
      },
      "geometry": {
        "type": "Point",
        "coordinates": [
          -116.79623686720996,
          38.822186854666114
        ]
      }
    }
  ]
}